C/2007 M2 (Catalina),e,81.0918,357.2271,220.7061,1564,0.0000159,0.99773533,0.0000,12/10.4902/2008,2000,g  8.0,4.0
# From MPC 73461
C/2007 N3 (Lulin),e,178.3769,338.1662,136.6314,1409,0.0000186,0.99912702,0.0000,01/07.7145/2009,2000,g  6.5,4.0
# From MPC 60925
P/2007 Q2 (Gilmore),e,10.2202,172.2594,162.9954,5.627411,0.0738314,0.66986032,269.8361,07/26.0/2017,2000,g 16.0,4.0
# From MPC 78183
C/2007 Q3 (Siding Spring),h,10/07.5053/2009,65.6638,149.3354,2.2745,1.000591,2.265204,2000,4.5,4.0
# From MPC 75514
P/2007 R1 (Larson),e,7.8690,181.6542,175.0615,6.041980,0.0663644,0.28070630,241.4048,07/26.0/2017,2000,g  8.0,4.0
# From MPC 75708
P/2007 R2 (Gibbs),e,1.2479,11.8767,352.4981,3.554132,0.1470970,0.54884312,191.5732,07/26.0/2017,2000,g 17.0,4.0
# From MPC 75708
P/2007 R4 (Garradd),e,20.2030,87.3333,283.0655,5.879356,0.0691368,0.66934720,249.3584,07/26.0/2017,2000,g 14.5,4.0
# From MPC 73462
P/2007 S1 (Zhao),e,5.9704,141.5209,245.8837,3.801304,0.1329858,0.34258726,107.4735,07/26.0/2017,2000,g 13.0,4.0
# From MPC 82314
C/2007 S2 (Lemmon),e,16.8599,296.0735,210.6593,12.56325,0.0221335,0.55643572,71.6675,07/26.0/2017,2000,g  6.5,4.0
# From MPC 62270
C/2007 T1 (McNaught),e,117.6987,111.5337,233.8503,1863,0.0000123,0.99947543,0.0000,12/08.1007/2007,2000,g 10.5,4.0
# From MPC 61994
P/2007 T2 (Kowalski),e,9.7573,3.4982,359.4805,3.054319,0.1846428,0.78496656,293.1010,07/26.0/2017,2000,g 18.5,4.0
# From MPC 62879
P/2007 T4 (Gibbs),e,23.8608,37.0583,42.4960,5.243899,0.0820772,0.61794583,300.2677,07/26.0/2017,2000,g 13.0,4.0
# From MPC 65935
C/2007 T5 (Gibbs),e,45.5687,109.7914,34.5663,46.85566,0.0030730,0.91323693,10.2938,07/26.0/2017,2000,g  8.0,4.0
# From MPC 66921
C/2007 U1 (LINEAR),h,08/09.7252/2008,157.7349,50.4531,1.3227,1.000777,3.319069,2000,9.0,4.0
# From MPC 75708
P/2007 V1 (Larson),e,10.7602,7.9340,51.6671,4.975154,0.0888166,0.46215490,312.4626,07/26.0/2017,2000,g 12.0,4.0
# From MPC 75708
P/2007 VQ11 (Catalina),e,12.3261,163.8165,277.8269,5.414270,0.0782338,0.50278224,269.9891,07/26.0/2017,2000,g 12.0,4.0
# From MPC 81468
C/2007 VO53 (Spacewatch),h,04/24.9212/2010,86.8742,59.7022,75.1471,1.000843,4.853881,2000,7.0,4.0
# From MPC 63599
C/2007 W1 (Boattini),e,9.8899,334.6701,306.1749,1146,0.0000254,0.99927006,0.0000,06/24.4188/2008,2000,g  9.5,4.0
# From MPC 63376
C/2007 W3 (LINEAR),e,78.6287,72.7664,112.5142,3685,0.0000044,0.99952091,0.0000,06/03.9391/2008,2000,g 12.0,4.0
# From MPC 62271
C/2007 Y1 (LINEAR),e,110.1470,133.0566,357.2788,15062,0.0000005,0.99977677,0.0000,03/19.0169/2008,2000,g 10.5,4.0
# From MPC 62271
C/2007 Y2 (McNaught),e,98.4754,303.4186,257.7152,1012,0.0000306,0.99584871,0.0000,04/11.8567/2008,2000,g  9.0,4.0
# From MPC 65935
C/2008 A1 (McNaught),e,82.7701,277.7670,348.2794,2819,0.0000066,0.99962280,0.0000,09/27.9250/2008,2000,g  6.5,4.0
# From MPC 62582
C/2008 C1 (Chen-Gao),e,61.7717,307.7351,181.0560,9094,0.0000011,0.99986014,0.0000,04/17.5865/2008,2000,g 10.0,4.0
# From MPC 75708
P/2008 CL94 (Lemmon),e,8.3547,33.3513,81.3218,6.151367,0.0646021,0.12053059,261.3115,07/26.0/2017,2000,g  8.0,4.0
# From MPC 64113
C/2008 E1 (Catalina),e,34.8189,188.8114,270.7624,10.81573,0.0277090,0.54959234,90.6623,07/26.0/2017,2000,g  7.0,4.0
# From MPC 68392
C/2008 E3 (Garradd),e,105.1692,105.6865,217.9887,1153,0.0000252,0.99520619,0.0000,07/28.9042/2008,2000,g  6.0,4.0
# From MPC 88324
C/2008 FK75 (Lemmon-Siding Spring),h,09/30.0317/2010,61.3037,218.2834,80.3603,1.000473,4.502077,2000,5.0,4.0
# From MPC 82314
C/2008 G1 (Gibbs),e,73.0798,215.9260,63.6649,282.1169,0.0002080,0.98587402,0.0000,01/12.3130/2009,2000,g  9.5,4.0
# From MPC 63137
C/2008 H1 (LINEAR),e,75.3644,34.4136,96.0803,50.74361,0.0027267,0.94550394,9.3264,07/26.0/2017,2000,g 10.5,4.0
# From MPC 65054
C/2008 J1 (Boattini),e,61.8998,273.5786,68.0769,156.5616,0.0005031,0.98895220,0.0000,07/09.5464/2008,2000,g 10.0,4.0
# From MPC 63376
C/2008 J5 (Garradd),e,93.3254,286.9672,313.0385,68.10829,0.0017535,0.97148431,0.0000,04/01.7090/2008,2000,g 12.0,4.0
# From MPC 82314
C/2008 J6 (Hill),h,04/09.0199/2008,45.0519,298.1925,10.5264,1.000766,1.991852,2000,10.5,4.0
# From MPC 75709
P/2008 L2 (Hill),e,25.8379,218.0073,141.3178,6.022356,0.0666890,0.61194470,218.6400,07/26.0/2017,2000,g 12.5,4.0
# From MPC 68902
C/2008 N1 (Holmes),e,115.4044,357.3693,100.7861,847.8066,0.0000399,0.99670285,0.0000,09/21.9600/2009,2000,g  9.0,4.0
# From MPC 75709
P/2008 O2 (McNaught),e,9.5132,325.8442,26.9856,4.495158,0.1034157,0.15127118,313.3355,07/26.0/2017,2000,g  9.0,4.0
# From MPC 64114
P/2008 O3 (Boattini),e,32.1875,47.6387,341.1715,8.234662,0.0417095,0.69339342,139.6964,07/26.0/2017,2000,g 13.0,4.0
# From MPC103843
C/2008 P1 (Garradd),e,64.2628,357.7940,11.7345,3410,0.0000049,0.99885894,0.0000,07/20.0927/2009,2000,g  7.0,4.0
# From MPC 65935
C/2008 Q1 (Maticic),e,118.5133,9.1397,104.3599,545.8668,0.0000773,0.99456583,0.0000,12/26.1468/2008,2000,g 10.0,4.0
# From MPC 80896
C/2008 Q3 (Garradd),e,140.8164,219.4830,340.6548,1353,0.0000198,0.99866292,0.0000,06/19.5625/2009,2000,g 10.0,4.0
# From MPC 75709
P/2008 QP20 (LINEAR-Hill),e,7.6248,324.2928,73.7296,3.515206,0.1495471,0.50426143,119.7118,07/26.0/2017,2000,g 15.5,4.0
# From MPC 64115
C/2008 R3 (LINEAR),e,43.2781,270.7359,84.0933,18.27184,0.0126192,0.89506362,40.0304,07/26.0/2017,2000,g 13.0,4.0
# From MPC 95207
C/2008 S3 (Boattini),h,06/08.4721/2011,162.6944,55.0701,40.0863,1.002549,8.005393,2000,4.0,4.0
# From MPC 66921
C/2008 T2 (Cardinal),h,06/15.4288/2009,56.2546,309.6354,215.9082,1.000199,1.201966,2000,6.0,4.0
# From MPC 75710
P/2008 T4 (Hill),e,6.3088,44.6091,1.5653,4.465522,0.1044469,0.43426594,327.8672,07/26.0/2017,2000,g 13.5,4.0
# From MPC 66204
P/2008 WZ96 (LINEAR),e,7.1172,57.4952,340.6788,3.399557,0.1572427,0.50632846,133.7259,07/26.0/2017,2000,g 13.5,4.0
# From MPC 65057
C/2008 X3 (LINEAR),e,66.4766,337.5866,140.9942,43.66749,0.0034156,0.95605151,10.9714,07/26.0/2017,2000,g 13.0,4.0
# From MPC 65935
P/2008 Y1 (Boattini),e,8.9186,259.3353,162.8042,4.802628,0.0936452,0.73584466,287.2601,07/26.0/2017,2000,g 15.0,4.0
# From MPC 75710
P/2008 Y3 (McNaught),e,38.7803,262.8118,238.4134,8.036544,0.0432614,0.44756263,134.8466,07/26.0/2017,2000,g  8.5,4.0
# From MPC 88693
P/2008 Y12 (SOHO),e,23.5696,309.8650,144.3100,3.076813,0.1826217,0.97799092,0.0000,10/09.9333/2019,2000,g  9.0,4.0
# From MPC 75710
P/2009 B1 (Boattini),e,22.2260,297.0724,129.1391,6.727504,0.0564837,0.63485907,175.1288,07/26.0/2017,2000,g 13.0,4.0
# From MPC 82315
C/2009 B2 (LINEAR),e,156.9534,18.7110,192.5257,40.67315,0.0037996,0.94224141,11.6474,07/26.0/2017,2000,g 12.5,4.0
# From MPC 72850
C/2009 E1 (Itagaki),e,127.2873,105.8085,48.7473,40.25456,0.0038591,0.98530648,0.0000,04/09.7818/2009,2000,g 11.5,4.0
# From MPC 82315
C/2009 F1 (Larson),e,171.4019,357.9594,219.8331,96.71816,0.0010362,0.98089619,0.0000,06/26.0459/2009,2000,g 15.0,4.0
# From MPC 80256
C/2009 F2 (McNaught),e,59.3352,213.9060,336.4563,358.9623,0.0001449,0.98360572,0.0000,11/14.0224/2009,2000,g  6.0,4.0
# From MPC 95208
C/2009 F4 (McNaught),e,79.4505,53.5585,260.3771,11905,0.0000008,0.99954203,0.0000,01/01.2148/2012,2000,g  3.0,4.0
# From MPC 66204
C/2009 F5 (McNaught),e,84.9395,218.7730,297.3225,78.59672,0.0014145,0.97141632,0.0000,11/03.4988/2008,2000,g 10.0,4.0
# From MPC 72850
C/2009 F6 (Yi-SWAN),e,85.6805,278.9009,129.9680,502.1292,0.0000876,0.99743203,0.0000,05/05.4559/2009,2000,g  6.0,4.0
# From MPC 66466
C/2009 G1 (STEREO),e,108.4055,120.6358,175.2747,389.6229,0.0001282,0.99712182,0.0000,04/14.1778/2009,2000,g  9.0,4.0
# From MPC 82315
C/2009 K2 (Catalina),e,66.8373,123.7182,147.4769,839.6822,0.0000405,0.99616042,0.0000,02/08.2957/2010,2000,g 10.0,4.0
# From MPC 66703
C/2009 K4 (Gibbs),e,34.8393,29.7759,127.7529,42.31029,0.0035813,0.96331193,10.5919,07/26.0/2017,2000,g 13.0,4.0
# From MPC 82315
C/2009 K5 (McNaught),e,104.2040,258.0507,66.2133,1933,0.0000116,0.99926137,0.0000,04/28.2806/2010,2000,g  7.5,4.0
# From MPC 69905
C/2009 O2 (Catalina),e,107.8863,310.3270,133.6454,259.0810,0.0002363,0.99727033,0.0000,03/23.6720/2010,2000,g 11.0,4.0
# From MPC 75710
P/2009 O3 (Hill),e,16.2108,183.8206,154.3120,7.783116,0.0453914,0.68510949,136.0674,07/26.0/2017,2000,g 12.5,4.0
# From MPC 67147
C/2009 O4 (Hill),h,12/28.9136/2009,95.6825,172.9941,223.7049,1.000000,2.565448,2000,10.0,4.0
# From MPC103843
C/2009 P1 (Garradd),e,106.2274,326.0794,90.8361,7694,0.0000015,0.99979723,0.0000,12/21.4638/2011,2000,g  4.0,4.0
# From MPC 76024
C/2009 P2 (Boattini),h,02/10.1764/2010,163.4167,60.4931,76.1538,1.000582,6.529395,2000,6.0,4.0
# From MPC 75710
P/2009 Q1 (Hill),e,14.4988,173.9452,157.2009,5.516722,0.0760646,0.49357378,225.6812,07/26.0/2017,2000,g 11.5,4.0
# From MPC 72850
P/2009 Q4 (Boattini),e,10.9824,127.5410,320.0760,3.133162,0.1777173,0.58049466,137.4981,07/26.0/2017,2000,g 15.5,4.0
# From MPC 68902
P/2009 Q5 (McNaught),e,40.8682,160.1829,209.1544,7.448972,0.0484797,0.60677926,139.9462,07/26.0/2017,2000,g 10.0,4.0
# From MPC 82315
C/2009 R1 (McNaught),h,07/01.9189/2010,76.9977,322.5894,130.9186,1.000395,0.414341,2000,8.0,4.0
# From MPC 75711
P/2009 S2 (McNaught),e,28.4149,121.5750,230.3935,4.170337,0.1157304,0.46910498,342.8563,07/26.0/2017,2000,g 14.0,4.0
# From MPC 87062
C/2009 S3 (Lemmon),e,60.4544,225.1737,129.7274,6371,0.0000019,0.99898497,0.0000,12/11.1939/2011,2000,g  6.5,4.0
# From MPC 78184
P/2009 SK280 (Spacewatch-Hill),e,16.8004,36.4183,327.9436,4.778169,0.0943652,0.11895988,282.6188,07/26.0/2017,2000,g 11.0,4.0
# From MPC 76567
C/2009 T1 (McNaught),e,90.0376,54.4655,282.6195,1079,0.0000278,0.99423147,0.0000,10/08.2010/2009,2000,g  6.5,4.0
# From MPC 75711
P/2009 T2 (La Sagra),e,27.4987,215.7196,216.6048,7.729870,0.0458612,0.76506540,126.4879,07/26.0/2017,2000,g 14.0,4.0
# From MPC 82315
C/2009 T3 (LINEAR),e,148.6017,60.1710,32.4027,5252,0.0000026,0.99956809,0.0000,01/12.6750/2010,2000,g 12.5,4.0
# From MPC 70812
C/2009 U3 (Hill),e,51.0639,49.0714,77.9527,179.1658,0.0004110,0.99206127,0.0000,03/19.3585/2010,2000,g 13.0,4.0
# From MPC 75711
